{"fetched_at":"2026-07-14T06:34:31.567Z","source":"https://celestrak.org/NORAD/elements/gp.php?GROUP=stations&FORMAT=JSON","constellation":"crewed-vehicles","records":[{"OBJECT_NAME":"SOYUZ-MS 28","OBJECT_ID":"2025-275A","EPOCH":"2026-07-13T18:23:41.212608","CLASSIFICATION_TYPE":"U","MEAN_MOTION":15.49001429,"ECCENTRICITY":0.0006711,"INCLINATION":51.6307,"RA_OF_ASC_NODE":168.5527,"ARG_OF_PERICENTER":292.2587,"MEAN_ANOMALY":67.7689,"EPHEMERIS_TYPE":0,"NORAD_CAT_ID":66664,"ELEMENT_SET_NO":999,"REV_AT_EPOCH":57581,"BSTAR":0.000080956,"MEAN_MOTION_DOT":0.00004013,"MEAN_MOTION_DDOT":0},{"OBJECT_NAME":"CREW DRAGON 12","OBJECT_ID":"2026-031A","EPOCH":"2026-07-13T18:23:41.212608","CLASSIFICATION_TYPE":"U","MEAN_MOTION":15.49001429,"ECCENTRICITY":0.0006711,"INCLINATION":51.6307,"RA_OF_ASC_NODE":168.5527,"ARG_OF_PERICENTER":292.2587,"MEAN_ANOMALY":67.7689,"EPHEMERIS_TYPE":0,"NORAD_CAT_ID":67796,"ELEMENT_SET_NO":999,"REV_AT_EPOCH":57579,"BSTAR":0.000080956,"MEAN_MOTION_DOT":0.00004013,"MEAN_MOTION_DDOT":0},{"OBJECT_NAME":"SHENZHOU-23 (SZ-23)","OBJECT_ID":"2026-113A","EPOCH":"2026-07-13T13:09:41.370336","CLASSIFICATION_TYPE":"U","MEAN_MOTION":15.58055023,"ECCENTRICITY":0.00023088,"INCLINATION":41.4687,"RA_OF_ASC_NODE":161.8154,"ARG_OF_PERICENTER":295.5855,"MEAN_ANOMALY":64.4744,"EPHEMERIS_TYPE":0,"NORAD_CAT_ID":69180,"ELEMENT_SET_NO":999,"REV_AT_EPOCH":29605,"BSTAR":0.000014285014,"MEAN_MOTION_DOT":0.00000774,"MEAN_MOTION_DDOT":0}]}
